STARLINK-36043          
1 66901U 25283Z   26001.31375874  .00085681  00000+0  15303-2 0  9990
2 66901  53.1607 337.4679 0002713  38.0160 322.1040 15.49334085  5522
STARLINK-35983          
1 66902U 25283AA  26001.44250451 -.00082664  00000+0 -15149-2 0  9996
2 66902  53.1603 336.8480 0001830 103.1760 256.9453 15.48912230  5548
STARLINK-36077          
1 66903U 25283AB  26002.15134865  .00007148  00000+0  13664-3 0  9999
2 66903  53.1604 333.4544 0008501 356.5269   3.5679 15.49256376  5655
STARLINK-36059          
1 66904U 25283AC  26001.89329553  .00142034  00000+0  25095-2 0  9994
2 66904  53.1607 334.6837 0000923 113.4565 246.6541 15.49378334  5619
STARLINK-36075          
1 66905U 25283AD  26002.16668980 -.02054831  00000+0 -66661-1 0  9990
2 66905  53.1594 333.5422 0001404  93.8496 269.0250 15.34715978  5712
1998-067XS              
1 66906U 98067XS  26001.57282294  .00040223  00000+0  66629-3 0  9997
2 66906  51.6323  43.9794 0002498 307.6709  52.4054 15.51757321  4696
1998-067XT              
1 66907U 98067XT  26002.12826208  .00101951  00000+0  15131-2 0  9996
2 66907  51.6312  40.9390 0003907 353.0267   7.0669 15.54385656  4783
1998-067XU              
1 66908U 98067XU  26002.12716485  .00101141  00000+0  15033-2 0  9994
2 66908  51.6300  40.9310 0003953 349.1199  10.9706 15.54347368  4787
SILVERSAT               
1 66909U 98067XV  26002.12357156  .00113309  00000+0  16502-2 0  9992
2 66909  51.6303  40.9076 0004043 356.0931   4.0028 15.54849160  4780
1998-067XW              
1 66910U 98067XW  26001.54410722  .00109070  00000+0  16086-2 0  9995
2 66910  51.6307  43.7876 0003274 324.6151  35.4622 15.54525863  4694
1998-067XX              
1 66911U 98067XX  26001.40868367  .00114538  00000+0  16421-2 0  9991
2 66911  51.6313  44.3841 0003115 337.3069  22.7784 15.55275272  4666
1998-067XY              
1 66912U 98067XY  26002.13705014  .00078094  00000+0  12053-2 0  9995
2 66912  51.6316  40.9983 0003773 341.2098  18.8753 15.53431066  4772
